{
  "norad_id": 62035,
  "name": "STARLINK-32592",
  "history": [
    {
      "epoch": "2026-03-28T20:48:33.908832",
      "apogee_km": 485.33129970519167,
      "perigee_km": 480.549128886827,
      "latitude_deg": 42.92073869905965,
      "longitude_deg": 106.73767648008652,
      "semi_major_axis_km": 6861.077214296009,
      "eccentricity": 0.0003485,
      "inclination_deg": 43.0026,
      "raan_deg": 155.3616,
      "arg_perigee_deg": 277.2449,
      "mean_anomaly_deg": 82.8006,
      "mean_motion_rev_day": 15.27616363
    }
  ]
}